ATS 1                   
1 02608U 66110A   12041.48314148 -.00000062  00000-0  10000-3 0  2795
2 02608   6.2712 306.4340 0005041 172.6978 187.3520  1.00315245 82227
ATS 3                   
1 03029U 67111A   12040.77419761 -.00000097  00000-0  10000-3 0  9192
2 03029   8.0012 312.5693 0017715  72.7477 287.5299  1.00272246162084
ORIZURU (DEBUT)         
1 20479U 90013B   12042.85014376 -.00000075  00000-0 -10232-3 0  1434
2 20479  99.0646 158.2509 0539797 127.4420 237.7058 12.83722292 31451
SURFSAT                 
1 23711U 95059B   12042.51887977  .00000029  00000-0  13924-3 0   144
2 23711 100.3623  33.8930 0368356  68.7713 295.2275 13.12599471779603
MAQSAT H                
1 25023U 97066A   12041.90061098 -.00000115  00000-0 -28987-3 0   684
2 25023   7.7483  29.7588 6504803 143.5876 286.6335  3.09563873161366
MAQSAT B                
1 25024U 97066B   12039.41278416 -.00000069  00000-0  22869-3 0   996
2 25024   7.8069  28.2768 6518057 145.7688 282.4798  3.08776380161111
TEAMSAT                 
1 25025U 97066C   12040.61516162 -.00000206  00000-0 -70248-3 0   925
2 25025   7.7571  45.2835 6523914 112.7585 325.9297  3.07916064160694
OPAL (OO-38)            
1 26063U 00004C   12042.46480212  .00000078  00000-0  46729-4 0  3178
2 26063 100.2181  20.8509 0037074  52.1954 308.2568 14.36048211631050
FALCONSAT               
1 26064U 00004D   12042.88056376  .00000095  00000-0  52899-4 0  2796
2 26064 100.2186  18.7046 0038348  60.0185 300.4794 14.35580550630934
PICOSAT 1 & 2 [TETHERED]
1 26080U 00004H   12042.46251868  .00000400  00000-0  14267-3 0  7893
2 26080 100.2274  53.1431 0032208 341.2820  18.7168 14.40897761631037
PICOSAT 3               
1 26091U 00004J   12041.90909249  .00000653  00000-0  20579-3 0  4223
2 26091 100.2171  69.3687 0030759 290.3335  69.4536 14.44448075631206
PICOSAT 4               
1 26092U 00004K   12041.94462914  .00000452  00000-0  15836-3 0  2440
2 26092 100.2161  45.3324 0034592 338.0331  21.9364 14.40933948630174
PICOSAT 5               
1 26093U 00004L   12041.81192454  .00000701  00000-0  21217-3 0  1532
2 26093 100.2050  78.7590 0031848 265.0368  94.7133 14.46136367631974
PICOSAT 6               
1 26094U 00004M   12041.95757037  .00000431  00000-0  15420-3 0  2925
2 26094 100.2199  42.8568 0035360 351.4782   8.5884 14.40202274629618
SNAP 1                  
1 26386U 00033C   12042.82848395  .00000251  00000-0  55061-4 0  5318
2 26386  98.2558 101.9193 0012142  38.0835 322.1214 14.65752954621164
PICOSAT 9               
1 26930U 01043B   12041.96400096  .00000030  00000-0  43884-4 0  9455
2 26930  67.0008  59.3947 0003222 315.5446  44.5396 14.30173643541268
PROBA-1                 
1 26958U 01049B   12042.74329829  .00000835  00000-0  85602-4 0  6524
2 26958  97.4901  77.9159 0081151  25.0974 335.4139 14.90607897560193
BIRD 2                  
1 26959U 01049C   12042.78298299  .00001736  00000-0  92527-4 0  4472
2 26959  97.9035 236.3177 0014622   1.2199 128.6062 15.16582298568698
CUTE-1 (CO-55)          
1 27844U 03031E   12041.96708769  .00000190  00000-0  10809-3 0  3076
2 27844  98.7047  52.1905 0008995 228.4875 131.5528 14.20959495446828
CANX-1                  
1 27847U 03031H   12042.52321864  .00000132  00000-0  80822-4 0  2224
2 27847  98.6953  53.2426 0008514 202.3130 157.7660 14.21209029446962
CUBESAT XI-IV (CO-57)   
1 27848U 03031J   12042.58270446  .00000132  00000-0  81511-4 0  2563
2 27848  98.7140  52.0784 0008735 230.1000 129.9407 14.20719611446856
NAXING 1                
1 28221U 04012B   12042.90715829  .00000744  00000-0  84778-4 0  1043
2 28221  97.4613  36.3635 0010347 213.4490 146.6074 14.88856059424531
ST5-A                   
1 28980U 06008A   12042.57463811  .00010017  00000-0  55118-3 0  8479
2 28980 105.6797  66.5976 2289558 146.4537 230.5095 10.75500596228343
ST5-B                   
1 28981U 06008B   12042.28402166  .00018791  16890-5  59459-3 0  9686
2 28981 105.5150 115.6507 2184673  76.7733 306.6284 11.05322758230970
ST5-C                   
1 28982U 06008C   12042.12686857  .00015918  15824-5  59630-3 0  9675
2 28982 105.5556 101.2278 2222016 101.1730 284.5368 10.95322511230074
GENESIS 1               
1 29252U 06029A   12042.56153942  .00001731  00000-0  12872-3 0  5408
2 29252  64.5111 131.8171 0055111 258.9549 100.5363 15.05507336306694
FALCONSAT-3             
1 30776U 07006E   12042.85566333  .00003070  00000-0  20583-3 0  2796
2 30776  35.4341 327.9028 0002966 335.4121  24.6456 15.06590874271189
GENESIS 2               
1 31789U 07028A   12042.07171965  .00001488  00000-0  11488-3 0  2865
2 31789  64.5054 166.0496 0044469 309.5150  50.2040 15.05081122253800
APRIZESAT 4             
1 35684U 09041D   12041.82372995  .00000240  00000-0  41609-4 0  7980
2 35684  98.0688 312.8757 0048555 266.2977  93.2659 14.76552940136621
APRIZESAT 3             
1 35686U 09041F   12042.47010221  .00000581  00000-0  74533-4 0  8054
2 35686  98.0892 323.8218 0077673 238.5583 120.8023 14.83267560137321
PROBA-2                 
1 36037U 09059B   12042.59787175 -.00000045  00000-0  00000+0 0  7436
2 36037  98.3021 234.2435 0012744 218.5469 141.4817 14.52184282120668
PRISMA (MANGO)          
1 36599U 10028B   12042.79065627  .00000258  00000-0  92283-4 0  3351
2 36599  98.2931 221.3517 0043457 163.4283 196.8306 14.41125751 87309
PRISMA (TANGO)          
1 36827U 10028F   12042.65179875  .00000275  00000-0  97334-4 0  9448
2 36827  98.2922 221.2156 0043950 163.7354 196.5301 14.41125900 79052
APRIZESAT 5             
1 37792U 11044E   12042.73288290  .00000387  00000-0  67614-4 0  5257
2 37792  98.2479 124.1051 0061905 146.7236 213.7879 14.72538762 26250
APRIZESAT 6             
1 37793U 11044F   12042.72163903  .00000349  00000-0  66162-4 0  5334
2 37793  98.2456 123.2681 0049806 145.9408 214.5007 14.69824467 26206
